[
    {
        "Altitude(m)": 604983.0530381674,
        "Argument of Periapsis(deg)": 0.0,
        "Eccentricity": 0.0,
        "Inclination(deg)": 60.0,
        "Latitude(deg)": -0.09270549243407308,
        "Longitude(deg)": -134.91608375125105,
        "Mean Anomaly(deg)": 180.00000000000003,
        "RAAN(deg)": 145.0,
        "Satellite Name": "Test1 649",
        "Satellite Number": 649,
        "Semi-Major Axis(m)": 6980739.136638005,
        "Time(s)": 0
    },
    {
        "Altitude(m)": 605055.332904095,
        "Argument of Periapsis(deg)": 0.00010418945913296404,
        "Eccentricity": 0.0,
        "Inclination(deg)": 60.0,
        "Latitude(deg)": -0.6331158117017185,
        "Longitude(deg)": -134.64795972463054,
        "Mean Anomaly(deg)": 180.62010614546185,
        "RAAN(deg)": 144.99957995086027,
        "Satellite Name": "Test1 649",
        "Satellite Number": 649,
        "Semi-Major Axis(m)": 6980739.136638005,
        "Time(s)": 10
    },
    {
        "Altitude(m)": 605130.8218369144,
        "Argument of Periapsis(deg)": 0.0002083789182659281,
        "Eccentricity": 0.0,
        "Inclination(deg)": 60.0,
        "Latitude(deg)": -1.1734952092996966,
        "Longitude(deg)": -134.37977805577646,
        "Mean Anomaly(deg)": 181.24021229092364,
        "RAAN(deg)": 144.99915990172053,
        "Satellite Name": "Test1 649",
        "Satellite Number": 649,
        "Semi-Major Axis(m)": 6980739.136638005,
        "Time(s)": 20
    },
    {
        "Altitude(m)": 605209.5088731094,
        "Argument of Periapsis(deg)": 0.00031256837739889213,
        "Eccentricity": 0.0,
        "Inclination(deg)": 60.0,
        "Latitude(deg)": -1.7138266048588524,
        "Longitude(deg)": -134.11148435700662,
        "Mean Anomaly(deg)": 181.86031843638546,
        "RAAN(deg)": 144.99873985258077,
        "Satellite Name": "Test1 649",
        "Satellite Number": 649,
        "Semi-Major Axis(m)": 6980739.136638005,
        "Time(s)": 30
    },
    {
        "Altitude(m)": 605291.3815252394,
        "Argument of Periapsis(deg)": 0.0004167578365318562,
        "Eccentricity": 0.0,
        "Inclination(deg)": 60.0,
        "Latitude(deg)": -2.2540928999590526,
        "Longitude(deg)": -133.8430236728442,
        "Mean Anomaly(deg)": 182.4804245818473,
        "RAAN(deg)": 144.99831980344103,
        "Satellite Name": "Test1 649",
        "Satellite Number": 649,
        "Semi-Major Axis(m)": 6980739.136638005,
        "Time(s)": 40
    },
    {
        "Altitude(m)": 605376.425785258,
        "Argument of Periapsis(deg)": 0.0005209472956648203,
        "Eccentricity": 0.0,
        "Inclination(deg)": 60.0,
        "Latitude(deg)": -2.794276968215992,
        "Longitude(deg)": -133.5743414565971,
        "Mean Anomaly(deg)": 183.10053072730915,
        "RAAN(deg)": 144.9978997543013,
        "Satellite Name": "Test1 649",
        "Satellite Number": 649,
        "Semi-Major Axis(m)": 6980739.136638005,
        "Time(s)": 50
    },
    {
        "Altitude(m)": 605464.6261285894,
        "Argument of Periapsis(deg)": 0.0006251367547977843,
        "Eccentricity": 0.0,
        "Inclination(deg)": 60.0,
        "Latitude(deg)": -3.334361645329946,
        "Longitude(deg)": -133.30538303398154,
        "Mean Anomaly(deg)": 183.72063687277094,
        "RAAN(deg)": 144.99747970516157,
        "Satellite Name": "Test1 649",
        "Satellite Number": 649,
        "Semi-Major Axis(m)": 6980739.136638005,
        "Time(s)": 60
    },
    {
        "Altitude(m)": 605555.965518933,
        "Argument of Periapsis(deg)": 0.0007293262139307483,
        "Eccentricity": 0.0,
        "Inclination(deg)": 60.0,
        "Latitude(deg)": -3.8743297190818216,
        "Longitude(deg)": -133.03609306663273,
        "Mean Anomaly(deg)": 184.34074301823284,
        "RAAN(deg)": 144.9970596560218,
        "Satellite Name": "Test1 649",
        "Satellite Number": 649,
        "Semi-Major Axis(m)": 6980739.136638005,
        "Time(s)": 70
    },
    {
        "Altitude(m)": 605650.4254138339,
        "Argument of Periapsis(deg)": 0.0008335156730637124,
        "Eccentricity": 0.0,
        "Inclination(deg)": 60.0,
        "Latitude(deg)": -4.414163919259125,
        "Longitude(deg)": -132.76641652834817,
        "Mean Anomaly(deg)": 184.96084916369463,
        "RAAN(deg)": 144.99663960688207,
        "Satellite Name": "Test1 649",
        "Satellite Number": 649,
        "Semi-Major Axis(m)": 6980739.136638005,
        "Time(s)": 80
    },
    {
        "Altitude(m)": 605747.9857709802,
        "Argument of Periapsis(deg)": 0.0009377051321966765,
        "Eccentricity": 0.0,
        "Inclination(deg)": 60.0,
        "Latitude(deg)": -4.953846907504151,
        "Longitude(deg)": -132.49629816828852,
        "Mean Anomaly(deg)": 185.58095530915648,
        "RAAN(deg)": 144.99621955774234,
        "Satellite Name": "Test1 649",
        "Satellite Number": 649,
        "Semi-Major Axis(m)": 6980739.136638005,
        "Time(s)": 90
    },
    {
        "Altitude(m)": 605848.6250552591,
        "Argument of Periapsis(deg)": 0.0010418945913296407,
        "Eccentricity": 0.0,
        "Inclination(deg)": 60.0,
        "Latitude(deg)": -5.493361267067874,
        "Longitude(deg)": -132.225681973978,
        "Mean Anomaly(deg)": 186.20106145461833,
        "RAAN(deg)": 144.9957995086026,
        "Satellite Name": "Test1 649",
        "Satellite Number": 649,
        "Semi-Major Axis(m)": 6980739.136638005,
        "Time(s)": 100
    },
    {
        "Altitude(m)": 605952.3202465075,
        "Argument of Periapsis(deg)": 0.0011460840504626045,
        "Eccentricity": 0.0,
        "Inclination(deg)": 60.0,
        "Latitude(deg)": -6.032689492453696,
        "Longitude(deg)": -131.95451214695242,
        "Mean Anomaly(deg)": 186.82116760008014,
        "RAAN(deg)": 144.99537945946284,
        "Satellite Name": "Test1 649",
        "Satellite Number": 649,
        "Semi-Major Axis(m)": 6980739.136638005,
        "Time(s)": 110
    },
    {
        "Altitude(m)": 606059.0468480471,
        "Argument of Periapsis(deg)": 0.0012502735095955685,
        "Eccentricity": 0.0,
        "Inclination(deg)": 60.0,
        "Latitude(deg)": -6.571813978941035,
        "Longitude(deg)": -131.682732565276,
        "Mean Anomaly(deg)": 187.44127374554193,
        "RAAN(deg)": 144.9949594103231,
        "Satellite Name": "Test1 649",
        "Satellite Number": 649,
        "Semi-Major Axis(m)": 6980739.136638005,
        "Time(s)": 120
    },
    {
        "Altitude(m)": 606168.7788959092,
        "Argument of Periapsis(deg)": 0.0013544629687285324,
        "Eccentricity": 0.0,
        "Inclination(deg)": 60.0,
        "Latitude(deg)": -7.110717011972623,
        "Longitude(deg)": -131.41028624577302,
        "Mean Anomaly(deg)": 188.06137989100375,
        "RAAN(deg)": 144.99453936118337,
        "Satellite Name": "Test1 649",
        "Satellite Number": 649,
        "Semi-Major Axis(m)": 6980739.136638005,
        "Time(s)": 130
    },
    {
        "Altitude(m)": 606281.488968773,
        "Argument of Periapsis(deg)": 0.0014586524278614966,
        "Eccentricity": 0.0,
        "Inclination(deg)": 60.0,
        "Latitude(deg)": -7.649380756389463,
        "Longitude(deg)": -131.13711631881748,
        "Mean Anomaly(deg)": 188.68148603646563,
        "RAAN(deg)": 144.99411931204364,
        "Satellite Name": "Test1 649",
        "Satellite Number": 649,
        "Semi-Major Axis(m)": 6980739.136638005,
        "Time(s)": 140
    },
    {
        "Altitude(m)": 606397.1481986647,
        "Argument of Periapsis(deg)": 0.0015628418869944607,
        "Eccentricity": 0.0,
        "Inclination(deg)": 60.0,
        "Latitude(deg)": -8.187787245501806,
        "Longitude(deg)": -130.8631654899061,
        "Mean Anomaly(deg)": 189.30159218192745,
        "RAAN(deg)": 144.99369926290387,
        "Satellite Name": "Test1 649",
        "Satellite Number": 649,
        "Semi-Major Axis(m)": 6980739.136638005,
        "Time(s)": 150
    },
    {
        "Altitude(m)": 606515.726282315,
        "Argument of Periapsis(deg)": 0.0016670313461274247,
        "Eccentricity": 0.0,
        "Inclination(deg)": 60.0,
        "Latitude(deg)": -8.725918369980727,
        "Longitude(deg)": -130.5883755008573,
        "Mean Anomaly(deg)": 189.9216983273893,
        "RAAN(deg)": 144.99327921376414,
        "Satellite Name": "Test1 649",
        "Satellite Number": 649,
        "Semi-Major Axis(m)": 6980739.136638005,
        "Time(s)": 160
    },
    {
        "Altitude(m)": 606637.1914932479,
        "Argument of Periapsis(deg)": 0.0017712208052603888,
        "Eccentricity": 0.0,
        "Inclination(deg)": 60.0,
        "Latitude(deg)": -9.263755866551655,
        "Longitude(deg)": -130.31268810348155,
        "Mean Anomaly(deg)": 190.54180447285114,
        "RAAN(deg)": 144.9928591646244,
        "Satellite Name": "Test1 649",
        "Satellite Number": 649,
        "Semi-Major Axis(m)": 6980739.136638005,
        "Time(s)": 170
    },
    {
        "Altitude(m)": 606761.5106945758,
        "Argument of Periapsis(deg)": 0.001875410264393353,
        "Eccentricity": 0.0,
        "Inclination(deg)": 60.0,
        "Latitude(deg)": -9.801281306479268,
        "Longitude(deg)": -130.03604451994633,
        "Mean Anomaly(deg)": 191.16191061831293,
        "RAAN(deg)": 144.99243911548467,
        "Satellite Name": "Test1 649",
        "Satellite Number": 649,
        "Semi-Major Axis(m)": 6980739.136638005,
        "Time(s)": 180
    },
    {
        "Altitude(m)": 606888.6493524542,
        "Argument of Periapsis(deg)": 0.0019795997235263173,
        "Eccentricity": 0.0,
        "Inclination(deg)": 60.0,
        "Latitude(deg)": -10.338476083826016,
        "Longitude(deg)": -129.75838490267952,
        "Mean Anomaly(deg)": 191.7820167637748,
        "RAAN(deg)": 144.99201906634488,
        "Satellite Name": "Test1 649",
        "Satellite Number": 649,
        "Semi-Major Axis(m)": 6980739.136638005,
        "Time(s)": 190
    }
]